[{"OBJECT_NAME":"STARLINK-3046","OBJECT_ID":"2021-082AR","EPOCH":"2026-03-10T00:00:02.999808","MEAN_MOTION":14.98309987,"ECCENTRICITY":0.00028659,"INCLINATION":69.9994,"RA_OF_ASC_NODE":273.6796,"ARG_OF_PERICENTER":274.4657,"MEAN_ANOMALY":257.0159,"EPHEMERIS_TYPE":0,"CLASSIFICATION_TYPE":"U","NORAD_CAT_ID":49169,"ELEMENT_SET_NO":999,"REV_AT_EPOCH":551,"BSTAR":0.0038735987,"MEAN_MOTION_DOT":0.00046409,"MEAN_MOTION_DDOT":0},{"OBJECT_NAME":"SAUDISAT 1A (SO-41)","OBJECT_ID":"2000-057A","EPOCH":"2026-03-09T22:39:31.129056","MEAN_MOTION":14.92876682,"ECCENTRICITY":0.00361512,"INCLINATION":64.5511,"RA_OF_ASC_NODE":249.3562,"ARG_OF_PERICENTER":314.8741,"MEAN_ANOMALY":44.9435,"EPHEMERIS_TYPE":0,"CLASSIFICATION_TYPE":"U","NORAD_CAT_ID":26545,"ELEMENT_SET_NO":999,"REV_AT_EPOCH":37821,"BSTAR":0.0002077791,"MEAN_MOTION_DOT":2.024e-5,"MEAN_MOTION_DDOT":0}]
